[{"OBJECT_NAME":"STARLINK-30499","OBJECT_ID":"2023-147F","EPOCH":"2026-03-09T07:25:00.382944","MEAN_MOTION":15.27574229,"ECCENTRICITY":0.0001804,"INCLINATION":43.0037,"RA_OF_ASC_NODE":182.3695,"ARG_OF_PERICENTER":279.5416,"MEAN_ANOMALY":80.5232,"EPHEMERIS_TYPE":0,"CLASSIFICATION_TYPE":"U","NORAD_CAT_ID":57918,"ELEMENT_SET_NO":999,"REV_AT_EPOCH":13827,"BSTAR":5.9523008e-5,"MEAN_MOTION_DOT":1.376e-5,"MEAN_MOTION_DDOT":0},{"OBJECT_NAME":"YAOGAN-43 01H","OBJECT_ID":"2024-148H","EPOCH":"2026-03-10T00:13:57.702432","MEAN_MOTION":15.25826805,"ECCENTRICITY":0.000635,"INCLINATION":34.994,"RA_OF_ASC_NODE":64.6147,"ARG_OF_PERICENTER":359.2394,"MEAN_ANOMALY":0.8311,"EPHEMERIS_TYPE":0,"CLASSIFICATION_TYPE":"U","NORAD_CAT_ID":60465,"ELEMENT_SET_NO":999,"REV_AT_EPOCH":8702,"BSTAR":0.00039232254,"MEAN_MOTION_DOT":0.00010268,"MEAN_MOTION_DDOT":0}]
